{
  "norad_id": 62254,
  "name": "QIANFAN-53",
  "history": [
    {
      "epoch": "2026-03-28T21:58:52.669632Z",
      "apogee_km": 1077.5366633694912,
      "perigee_km": 1059.5707773375661,
      "latitude_deg": 5.3717476247753806e-05,
      "longitude_deg": -125.53243160416712,
      "height_km": 1075.3081610836741,
      "semi_major_axis_km": 7446.690720353528,
      "eccentricity": 0.0012063,
      "inclination_deg": 89.01,
      "raan_deg": 30.5165,
      "arg_perigee_deg": 245.024,
      "mean_anomaly_deg": 114.9659,
      "mean_motion_rev_day": 13.51007583
    },
    {
      "epoch": "2026-03-29T05:05:28.810464Z",
      "apogee_km": 1077.5430931398569,
      "perigee_km": 1059.5638037211656,
      "latitude_deg": -1.3679397822374387e-05,
      "longitude_deg": 127.49538158127079,
      "height_km": 1075.4550794768718,
      "semi_major_axis_km": 7446.6904484305105,
      "eccentricity": 0.0012072,
      "inclination_deg": 89.0101,
      "raan_deg": 30.4869,
      "arg_perigee_deg": 244.005,
      "mean_anomaly_deg": 115.9858,
      "mean_motion_rev_day": 13.51007657
    }
  ]
}